GSAT0213 (GALILEO 17)   
1 41861U 16069C   26058.27531726  .00000004  00000+0  00000+0 0  9998
2 41861  55.4260 104.1303 0005130 291.6331  68.3872  1.70474834 57644
GSAT0214 (GALILEO 18)   
1 41862U 16069D   26059.00795760  .00000007  00000+0  00000+0 0  9994
2 41862  55.4250 104.1026 0004132 296.1582  63.8775  1.70474701 57785
SES-15                  
1 42709U 17026A   26063.49419834  .00000049  00000+0  00000+0 0  9998
2 42709   0.0422 304.7457 0000720  40.1185 226.1090  1.00270841  6380
QZS-2 (MICHIBIKI-2)     
1 42738U 17028A   26063.52022194 -.00000176  00000+0  00000+0 0  9997
2 42738  39.5902 244.6778 0745655 270.3311 336.1474  1.00261975  6578
QZS-3 (MICHIBIKI-3)     
1 42917U 17048A   26063.77803671 -.00000358  00000+0  00000+0 0  9994
2 42917   0.0714 216.2391 0002269 139.7530 213.5999  1.00275931 31211
COSMOS 2522 [GLONASS-M] 
1 42939U 17055A   26060.66254924 -.00000014  00000+0  00000+0 0  9991
2 42939  64.0792 195.5407 0007123 226.6423 133.2575  2.13101627 65680
QZS-4 (MICHIBIKI-4)     
1 42965U 17062A   26063.49969188 -.00000343  00000+0  00000+0 0  9992
2 42965  40.1729 344.8221 0748648 269.8938 227.8704  1.00280862 30759
BEIDOU-3 M1             
1 43001U 17069A   26062.35283419 -.00000016  00000+0  00000+0 0  9998
2 43001  56.6002  66.5689 0012408 309.5374  50.3827  1.86230953 56637
BEIDOU-3 M2             
1 43002U 17069B   26063.36523573 -.00000024  00000+0  00000+0 0  9998
2 43002  56.5998  66.5715 0009709 329.0395  30.9280  1.86230543 56644
GSAT0215 (GALILEO 19)   
1 43055U 17079A   26062.43085966  .00000010  00000+0  00000+0 0  9997
2 43055  55.1080 224.4135 0000631  13.1955 346.7446  1.70474475 51181
GSAT0216 (GALILEO 20)   
1 43056U 17079B   26060.96235113  .00000013  00000+0  00000+0 0  9998
2 43056  55.1088 224.4540 0001688 322.1798  37.7539  1.70474524 51175
GSAT0217 (GALILEO 21)   
1 43057U 17079C   26062.35625513  .00000009  00000+0  00000+0 0  9996
2 43057  55.1084 224.4135 0002106 356.8681   3.0693  1.70474491 51184
GSAT0218 (GALILEO 22)   
1 43058U 17079D   26062.57629942  .00000010  00000+0  00000+0 0  9993
2 43058  55.1051 224.4052 0001913 304.2573  55.6627  1.70474504 51218
BEIDOU-3 M7             
1 43107U 18003A   26063.10725251 -.00000062  00000+0  00000+0 0  9994
2 43107  54.4212 305.9804 0004653  71.0897 289.0191  1.86232236 55399
BEIDOU-3 M8             
1 43108U 18003B   26063.05281213 -.00000062  00000+0  00000+0 0  9994
2 43108  54.4138 305.9650 0003018 293.9658  66.0612  1.86230762 55405
BEIDOU-3 M4             
1 43207U 18018A   26062.42109766 -.00000016  00000+0  00000+0 0  9991
2 43207  56.5592  66.6343 0006867 350.5022   9.5144  1.86230898 54773
BEIDOU-3 M3             
1 43208U 18018B   26062.48754531 -.00000017  00000+0  00000+0 0  9995
2 43208  56.5588  66.6362 0009891 319.5859  40.3698  1.86231010 54777
